#dP2022 12  1  6  0  0.00000000      96 __u+U ITR00 EXT  IAC
## 2238 367200.00000000   900.00000000 59914 0.2500000000000
+  117   C06C07C08C09C10C11C12C13C14C16C19C20C21C22C23C24C25
+        C26C27C28C29C30C32C33C34C35C36C37C38C39C40C41C42C43
+        C44C45C46E01E02E03E04E05E07E09E10E11E12E13E14E15E18
+        E19E21E24E25E26E27E30E31E33E34E36G01G02G03G04G05G06
+        G07G08G09G10G11G12G13G14G15G16G17G18G19G20G21G22G23
+        G24G25G26G27G29G30G31G32J02J03J04R01R02R03R04R05R07
+        R08R09R11R12R13R14R15R17R18R19R20R21R22R24R25  0  0
++        10 10 12  9  9  8  9 13  9  9  8  8  9  9  8  9  8
++         8  8  8 11  8 10  8  9 10  8  7 10  8 10 10  8  9
++        10  9  9  8  8  8  8  8  8  8  9  8  9  9  9  8  9
++         8  8  8  8  8  8  8  8  8  8  8  8  8  8  8  8  9
++         9  8  8  8  9  8  8 10  8  8  8  8  8  8  8  8  8
++         8  9  8  8  8  8  8  8  9  9  9  8  8  8  8  8  9
++         8  9  9  9  8  8  9  9  8  9  9  9  9  9  8  0  0
%c M  cc GPS ccc cccc cccc cccc cccc ccccc ccccc ccccc ccccc
%c cc cc ccc ccc cccc cccc cccc cccc ccccc ccccc ccccc ccccc
%f  0.0000000  0.000000000  0.00000000000  0.000000000000000
%f  0.0000000  0.000000000  0.00000000000  0.000000000000000
%i    0    0    0    0      0      0      0      0         0
%i    0    0    0    0      0      0      0      0         0
/* IAC                                ULTRA-RAPID PREDICTION
/* S/V CLOCKS ARE ALIGNED TO GNSS TIME                      
/* G:C1WC2W R:C1PC2P E:C1XC5X C:C2IC6I J:C1CC2S             
/* PCV:IGS14_2233 OL/AL:FES2004  NONE     YN ORB:CoN CLK:CoN
*  2022 12 01 11  0  0.00000000
PC06 -14440.813976  38485.871314   8835.042816    226.015323
PC07  -1822.667278  33329.398407  25893.692956    137.319855
PC08 -13650.643889  20101.221318 -34499.640896    518.478867
PC09  -9156.739945  37417.730452  16877.110068   -793.498151
PC10   5433.023809  36270.750318  21517.150395     59.170796
PC11  17345.145193 -15909.536574 -14894.467958   -260.991937
PC12  15235.056625   3111.729693 -23125.330036    325.808040
PC13  -4489.076385  22194.207348 -35434.361471    147.178863
PC14  15095.537253  -6138.157758  22671.152661    225.154352
PC16 -18006.361466  37795.228609   3733.449847    108.806784
PC19  -7624.924410  14834.055947 -22356.297582   -907.970095
PC20 -19200.756644  -1783.182135 -20158.451112    820.373904
PC21  20029.380008  18618.427183   5606.211614   -931.117687
PC22   8865.410988  23716.507810 -11759.059059   -763.816630
PC23   -607.664731 -16367.534853 -22592.954130   -873.616771
PC24  27667.413594  -2608.780841   2330.909183   -733.413411
PC25  18183.461087 -14520.450206 -15396.233493     32.897414
PC26  20836.216401   8319.214911  16555.843730    -43.650522
PC27 -11511.845615 -12536.392337  22101.563309     59.641098
PC28   1001.854254 -25139.897669  12074.691035     42.245048
PC29 -13073.016078  23846.819147   6258.835087     47.862702
PC30 -17636.064184   7377.077071  20320.864175      1.124195
PC32 -20131.994487 -18526.116115  -5486.587763   -698.078292
PC33   7671.430265 -14799.924344  22376.899779   -901.318089
PC34  17745.823872  -8657.540799 -19734.025317     51.417742
PC35  -1258.782882  25734.509859 -10684.417254    113.177891
PC36 -19089.498293  13858.175468  14938.246250   -800.034128
PC37 -19611.237038  -9560.062911 -17406.937237   -898.673423
PC38 -21150.566119  21037.830112 -29853.568316     41.936428
PC39 -18608.674952  37697.549692  -1306.639399     -0.967767
PC40  -5774.413996  28859.990738  30274.581396     -9.246759
PC41  -8423.728695 -23626.052439  12282.439758   -333.399521
PC42  19740.738523   2943.854947  19546.321498   -767.337080
PC43  13553.627857 -23391.890568  -6964.809838     27.852596
PC44  12002.703193  12324.859574 -21973.638171    131.204199
PC45    984.372729  16199.164209  22699.340092    -29.215737
PC46 -27660.631277   3829.791238   -604.867603    -16.641822
PE01 -12330.612252 -19021.308404 -19039.136325   -573.736400
PE02  12568.761166  19002.525888  18883.529541      5.915583
PE03   7673.012114  28144.621906   5027.529217   -625.426313
PE04 -16387.558959 -14258.311782 -20112.117878     -4.646590
PE05  -5755.236795  25782.183895 -13354.872624   -119.337942
PE07  15624.666285  -8441.399529  23677.444141     -3.674657
PE09 -15531.037909   8233.113036 -23821.680648   -748.482257
PE10 -23801.366794   5140.960157  16836.054777   -494.689168
PE11 -25144.546177  13626.657054   7615.590971   1069.405863
PE12 -18933.627128  -3579.852970  22469.625903   -307.288095
PE13  25171.409636 -13047.261323  -8496.246503    430.491188
PE14  16477.642622  20062.987871 -19536.593465     72.159286
PE15  18700.028060   3734.489951 -22628.275279    703.850973
PE18 -13167.731540 -11298.314541  15873.158741   -679.537847
PE19  -5893.000650 -28903.401386  -2517.180627  -3856.080886
PE21   7536.860136 -14943.396810 -24413.405752   -497.804779
PE24 -25175.435528   1267.268187  15528.803064   -977.555580
PE25  -7895.139719  14790.059599  24401.124857   -593.937221
PE26  16158.342598 -22129.412100  11194.328633  -1894.302091
PE27  24636.003333  -2068.919385 -16261.775417   -452.666020
PE30  26768.342589  12432.159670   2094.672693  -1042.610723
PE31 -27077.302023 -11893.441612  -1371.326992   -509.545912
PE33  -1238.981231 -18202.272752  23317.802259   -455.657828
PE34   1431.082998  18118.131310 -23366.934697    -17.385773
PE36 -16828.764493  21992.822532 -10445.559935   -468.895048
PG01  -8122.586785  18704.894931 -17134.491494    243.870062
PG02   4097.355825 -19431.855061  18368.254653   -635.256438
PG03    983.917908  16334.027440 -21067.222362   -374.826568
PG04   -949.797531  26355.496627  -2626.209882    -76.658211
PG05  13318.413400  -9817.945267  20628.427747   -106.392964
PG06  22041.918613  -3143.095911 -14472.738722    530.832356
PG07   7701.709431  13633.293896  21859.750409    280.437919
PG08  -7166.091231  21752.459212  13079.302865    -96.471743
PG09   7928.856829  23947.953112   8157.537132   -260.370304
PG10 -24135.113280 -11488.464171   -358.285900    -14.207869
PG11  23677.742274 -11545.597184  -3225.318419    -48.900611
PG12   1122.523643 -16278.103742 -21248.840606   -310.726228
PG13  12872.690540 -15360.494533  17157.571989    434.305467
PG14  22962.107965  13402.167732   1417.195955    -75.132959
PG15   4585.521340 -22762.310392  12188.634319     -7.810068
PG16 -18056.027366   4288.303200  18890.354703   -526.637959
PG17  12393.344045  14236.539151 -18211.471348    682.404957
PG18  -9240.732160 -11809.241124  21928.773925    -42.387589
PG19  14905.426434   2227.053703 -22111.943073    244.660911
PG20  22826.620041  -2966.556651  13072.434836    466.462976
PG21 -14810.957407  19525.166148  -8591.573797    154.856065
PG22 -14989.532272   1408.061464 -21452.483989    375.729990
PG23 -18737.651133 -16046.074418  10021.478496     -0.542516
PG24  10279.141824 -20657.985920 -13113.418640     35.435014
PG25 -10489.100796 -18157.450891 -16762.021685    397.893706
PG26 -24587.868936  -2115.425735  10148.275917    237.320338
PG27 -12824.608851  11557.861658  19843.899070    164.731622
PG29  -4270.420333 -25304.162181   6642.378169   -571.002166
PG30  18188.121714   4788.650206  18937.747444   -536.068374
PG31 -23124.658066   3765.355032 -13096.626589   -201.907825
PG32 -14499.352418 -10703.805424 -19423.929326   -314.581804
PJ02 -27880.679823  21595.280591  28150.541613     -0.229065
PJ03 -32513.418576  26349.232810  10046.667352     -5.725736
PJ04 -22969.498117  22334.322807 -22252.509784    114.102182
PR01 -10569.304891   3665.480639 -22928.488468     18.796388
PR02   1418.437675  19256.336955 -16590.990677    -23.404950
PR03  11896.193476  22516.869488   -595.286606     68.259126
PR04  15308.895295  13363.317231  15428.412934    166.933276
PR05  10496.301184  -3140.343407  23038.871901    103.819539
PR07 -12185.942946 -22443.553755    -79.515084     45.296702
PR08 -15427.334236 -13220.345374 -15396.297470    -68.365525
PR09   7680.353907 -10770.834254 -21807.465664     90.594593
PR11 -23767.276864  -4160.920178  -8247.790056     17.696871
PR12 -22774.960601   4605.629202  10570.751208     23.287952
PR13  -9409.036361  10178.121545  21397.802230    -29.496174
PR14  11505.614152  10077.094818  20427.430516     24.066947
PR15  24129.003452   4005.502927   7256.207658     92.622277
PR17    266.599454  16404.289064 -19533.027010    583.001921
PR18  11022.798246   1830.805240 -22913.512126     54.662640
PR19  16361.597623 -12097.284405 -15370.666364   -212.963843
PR20  12397.688437 -21873.528287   4430.790195    -83.164342
PR21  -1334.388170 -15175.962267  20456.098905   -354.028822
PR22 -11689.638723  -1796.244276  22630.120205     19.673305
PR24 -11345.475871  22303.038237  -4980.014702    129.946333
PR25    575.628968 -16764.779967  19217.090338     47.745312
EOF
